SENTINEL-6              
1 46984U 20086A   24059.76916308 -.00000057  00000+0  18047-4 0  9993
2 46984  66.0400  78.5318 0007866 270.7130  89.2984 12.80931201152812
